AZERSPACE 2 (IS-38)     
1 43632U 18074A   24291.63392796  .00000135  00000+0  00000+0 0  9998
2 43632   0.0170 157.8282 0001703  61.9153  80.2313  1.00271397 22356
HORIZONS-3E             
1 43633U 18074B   24292.19626517 -.00000032  00000+0  00000+0 0  9999
2 43633   0.0178 229.9425 0001355  41.0451 355.8365  1.00270410 22238
AEHF-4 (USA 288)        
1 43651U 18079A   24291.89739725 -.00000278  00000+0  00000+0 0  9998
2 43651   1.6235 335.1726 0053099   7.1326 299.9964  1.00277114 22207
BEIDOU-3 G1             
1 43683U 18085A   24291.93875231 -.00000276  00000+0  00000+0 0  9996
2 43683   2.4908 105.1140 0002123  42.8764 356.9809  1.00271422 21967
GSAT-29                 
1 43698U 18089A   24292.13631834  .00000083  00000+0  00000+0 0  9993
2 43698   0.0479  92.9363 0002782 127.4983 270.8537  1.00274640 21736
ES'HAIL 2               
1 43700U 18090A   24292.30326898  .00000143  00000+0  00000+0 0  9996
2 43700   0.0173 240.2375 0001383 350.1838 291.8634  1.00268830 21838
GEO-KOMPSAT-2A          
1 43823U 18100A   24292.22241684 -.00000345  00000+0  00000+0 0  9999
2 43823   0.0205  61.8290 0001117  84.0494  89.6353  1.00272367 21571
GSAT-11                 
1 43824U 18100B   24289.59285660 -.00000079  00000+0  00000+0 0  9992
2 43824   0.0269 132.1587 0004487 358.7711 181.0769  1.00270760 21370
GSAT-7A                 
1 43864U 18105A   24291.85191091  .00000025  00000+0  00000+0 0  9997
2 43864   0.0363  75.4866 0002460 138.6206 182.2090  1.00270783 21354
COSMOS 2533             
1 43867U 18107A   24291.90049302 -.00000041  00000+0  00000+0 0  9994
2 43867   0.0365  84.6110 0000571 187.0371 149.4450  1.00273142 21341
TJS-3                   
1 43874U 18110A   24292.69456294  .00000004  00000+0  00000+0 0  9993
2 43874   0.9704  87.5478 0005362 147.2925 216.0805  1.00276710 21406
ZHONGXING-2D            
1 43920U 19001A   24292.00825664 -.00000338  00000+0  00000+0 0  9992
2 43920   0.0371 300.6355 0003947 311.0967 268.2501  1.00269827 21263
HELLAS-SAT 4 & SGS-1    
1 44034U 19007A   24292.22757641  .00000151  00000+0  00000+0 0  9990
2 44034   0.0652 127.3213 0005884  39.1014 341.7285  1.00269280 21261
GSAT-31                 
1 44035U 19007B   24291.86091231  .00000124  00000+0  00000+0 0  9996
2 44035   0.0586  77.8767 0005371 163.3437 143.4427  1.00272437 20870
NUSANTARA SATU          
1 44048U 19009A   24288.74979927 -.00000236  00000+0  00000+0 0  9997
2 44048   0.0250 148.8236 0003908   9.4275 281.4899  1.00270578 20641
ZHONGXING-6C            
1 44067U 19012A   24291.79387480 -.00000336  00000+0  00000+0 0  9999
2 44067   0.0423  61.5807 0001920  32.9569 348.4700  1.00271513 20643
WGS 10 (USA 291)        
1 44071U 19014A   24292.22271677  .00000046  00000+0  00000+0 0  9992
2 44071   0.0201 200.3683 0000538  16.1976 311.1525  1.00267718 20528
TIANLIAN 2-01           
1 44076U 19017A   24292.17966159 -.00000108  00000+0  00000+0 0  9990
2 44076   0.0166 188.3533 0002125  46.6501 293.8846  1.00271205 20526
ARABSAT-6A              
1 44186U 19021A   24289.98660935  .00000152  00000+0  00000+0 0  9993
2 44186   0.0496   1.2476 0006474 239.5482 169.8629  1.00266274 20043
BEIDOU-3 IGSO-1         
1 44204U 19023A   24291.72002645 -.00000232  00000+0  00000+0 0  9999
2 44204  57.8271  43.9474 0024638 207.5456 153.2908  1.00264179  1121
BEIDOU-2 G8             
1 44231U 19027A   24292.15412883 -.00000248  00000+0  00000+0 0  9997
2 44231   1.7791  74.5092 0004282 187.7753 324.8594  1.00268493 19987
YAMAL 601               
1 44307U 19031A   24292.42097806  .00000118  00000+0  00000+0 0  9995
2 44307   0.0111 236.9888 0002403 340.9654  10.0207  1.00272738 19827
AT&T T-16               
1 44333U 19034A   24292.39135182 -.00000116  00000+0  00000+0 0  9992
2 44333   0.0204 243.9182 0000565 214.4872 329.0074  1.00269180 19549
EUTELSAT 7C             
1 44334U 19034B   24289.62464135  .00000047  00000+0  00000+0 0  9990
2 44334   0.0681 193.5967 0003401 352.7255  70.2169  1.00271904 20014
BEIDOU-3 IGSO-2         
1 44337U 19035A   24292.43289056 -.00000090  00000+0  00000+0 0  9993
2 44337  55.1821 164.1897 0034753 201.7069 295.2569  1.00258513 19618
COSMOS 2539             
1 44457U 19048A   24291.77033021  .00000080  00000+0  00000+0 0  9993
2 44457   0.0207 138.3230 0000499 183.4446 354.3237  1.00270056 19139
EDRS-C                  
1 44475U 19049A   24291.83881298  .00000153  00000+0  00000+0 0  9999
2 44475   0.0860 254.9421 0000894 286.2520 178.8356  1.00269527 19104
INTELSAT 39 (IS-39)     
1 44476U 19049B   24291.70873199  .00000033  00000+0  00000+0 0  9994
2 44476   0.0198 233.8277 0000249  63.8482  46.0920  1.00269858 19036
AMOS-17                 
1 44479U 19050A   24292.27176491  .00000108  00000+0  00000+0 0  9996
2 44479   0.0122 240.0674 0002856 343.3256 278.6791  1.00272008 19094
AEHF-5 (USA 292)        
1 44481U 19051A   24291.85747126 -.00000238  00000+0  00000+0 0  9997
2 44481   2.4639 309.4108 0054685  10.1498 106.0192  1.00273048 19164
EUTELSAT 5 WEST B       
1 44624U 19067A   24292.30813561 -.00000043  00000+0  00000+0 0  9995
2 44624   0.0752  36.3368 0003324 176.7624 280.1465  1.00272070 18352
MEV-1                   
1 44625U 19067B   24291.02757650 -.00000203  00000+0  00000+0 0  9998
2 44625   0.0577  79.9057 0001455 191.4670  97.1276  1.00272507 18300
TJS-4                   
1 44637U 19070A   24291.92754473 -.00000171  00000+0  00000+0 0  9998
2 44637   0.1038  91.3011 0006081 219.1000 133.9471  1.00270008 18444
BEIDOU-3 IGSO-3         
1 44709U 19073A   24291.39430028 -.00000185  00000+0  00000+0 0  9994
2 44709  55.8451 287.4282 0041015 191.1609 168.7162  1.00265155 18347
TIBA-1                  
1 44800U 19080A   24292.29771713  .00000154  00000+0  00000+0 0  9998
2 44800   0.0606 359.1724 0002482 211.6687 319.1265  1.00269652 17992
INMARSAT GX5            
1 44801U 19080B   24291.84285566  .00000073  00000+0  00000+0 0  9995
2 44801   0.0252  23.2183 0002700 201.3360 116.6735  1.00270647   715
JCSAT-18 (KACIFIC 1)    
1 44868U 19091A   24292.54101582 -.00000202  00000+0  00000+0 0  9998
2 44868   0.0373   0.9106 0000523 256.1407 115.2344  1.00271930 18019
ELEKTRO-L 3             
1 44903U 19095A   24292.14048861 -.00000098  00000+0  00000+0 0  9991
2 44903   0.0569  13.6504 0001546 233.4004 266.7102  1.00271473 17606
SHIJIAN-20 (SJ-20)      
1 44910U 19097A   24292.69965076 -.00000068  00000+0  00000+0 0  9994
2 44910   3.3573  82.4562 0009199 126.1953 143.9351  1.00272433 17616
TJS-5                   
1 44978U 20002A   24291.50334670 -.00000343  00000+0  00000+0 0  9991
2 44978   0.0915  94.1708 0004944 108.7189 112.3133  1.00274171 17592
GSAT-30                 
1 45026U 20005A   24291.99861292 -.00000166  00000+0  00000+0 0  9990
2 45026   0.0863  92.7215 0001789  72.0087 304.7797  1.00270620 17442
EUTELSAT KONNECT        
1 45027U 20005B   24288.84632757  .00000048  00000+0  00000+0 0  9991
2 45027   0.0611  86.8754 0000856 133.6943 115.2172  1.00271085 18208
JCSAT-17                
1 45245U 20013A   24291.93797039 -.00000324  00000+0  00000+0 0  9999
2 45245   5.5305 350.9830 0003749 211.9374 297.6825  1.00272040 17157
GEO-KOMPSAT-2B          
1 45246U 20013B   24289.53920965 -.00000346  00000+0  00000+0 0  9993
2 45246   0.0292 344.7667 0001877 256.9649 105.2253  1.00270031 17164
BEIDOU-3 G2             
1 45344U 20017A   24292.14127053 -.00000142  00000+0  00000+0 0  9998
2 45344   2.4813  33.9415 0004105 198.6687 285.4294  1.00271619 17188
AEHF-6 (USA 298)        
1 45465U 20022B   24291.93823103 -.00000305  00000+0  00000+0 0  9994
2 45465   3.9413 298.2541 0044615   1.4837 202.6855  1.00268074 16890
BEIDOU-3 G3             
1 45807U 20040A   24292.07567583 -.00000354  00000+0  00000+0 0  9991
2 45807   1.0111  53.8690 0002964 290.5011 180.4544  1.00266407 15996
APSTAR-6D               
1 45863U 20045A   24292.43800660 -.00000319  00000+0  00000+0 0  9995
2 45863   0.0212 231.8524 0004127 356.9478  90.3064  1.00271959 15769
KOREASAT 116            
1 45920U 20048A   24292.49354550 -.00000363  00000+0  00000+0 0  9999
2 45920   0.0146 253.8712 0001156 331.4429  96.0397  1.00269573 15542
EXPRESS 103             
1 45985U 20053A   24291.85860071 -.00000282  00000+0  00000+0 0  9995
2 45985   0.0146 248.7632 0000382 232.8258 310.8748  1.00271577 15556
EXPRESS 80              
1 45986U 20053B   24291.70364888 -.00000138  00000+0  00000+0 0  9995
2 45986   0.0263 265.7142 0000225 203.7412 250.5770  1.00272492 15537
BSAT-4B                 
1 46112U 20056A   24291.78979142 -.00000352  00000+0  00000+0 0  9991
2 46112   0.1037 102.4514 0003516  71.3988 247.1239  1.00272379 15291
MEV-2                   
1 46113U 20056B   24291.96033951 -.00000011  00000+0  00000+0 0  9993
2 46113   0.0161 161.0927 0001145  81.1032 129.5106  1.00272446 74424
GALAXY 30 (G-30)        
1 46114U 20056C   24292.53488962  .00000035  00000+0  00000+0 0  9999
2 46114   0.0180 250.0212 0002773 322.9047 242.1715  1.00270807 15323
GAOFEN-13 01            
1 46610U 20071A   24291.86277097 -.00000364  00000+0  00000+0 0  9993
2 46610   0.0455 310.9033 0016495 245.2244 258.9311  1.00277150 14816
TIANTONG-1 2            
1 46916U 20082A   24291.86424794 -.00000360  00000+0  00000+0 0  9998
2 46916   2.0582 294.5869 0003858 319.6974 208.6135  1.00270139 14565
LUCAS (JDRS-1)          
1 47202U 20089A   24291.85747126 -.00000237  00000+0  00000+0 0  9993
2 47202   0.0481  54.8613 0002411 142.9023 228.5767  1.00272447 14320
SXM-7                   
1 47240U 20096A   24291.53653502 -.00000212  00000+0  00000+0 0  9995
2 47240   0.0104 164.3797 0015241 357.9354 332.3530  1.00314270  1367
CMS-01                  
1 47256U 20099A   24292.47804973 -.00000166  00000+0  00000+0 0  9997
2 47256   0.1148  92.0201 0007868 167.3097  23.2470  1.00271691 14107
